[
    {
        "CCSDS_OMM_VERS": "3.0",
        "COMMENT": "GENERATED VIA SPACE-TRACK.ORG API",
        "CREATION_DATE": "2025-05-03T17:28:03",
        "ORIGINATOR": "18 SPCS",
        "OBJECT_NAME": "BEIDOU 3M13",
        "OBJECT_ID": "2018-072A",
        "CENTER_NAME": "EARTH",
        "REF_FRAME": "TEME",
        "TIME_SYSTEM": "UTC",
        "MEAN_ELEMENT_THEORY": "SGP4",
        "EPOCH": "2025-05-03T07:15:25.075584",
        "MEAN_MOTION": "1.86231275",
        "ECCENTRICITY": "0.00086350",
        "INCLINATION": "56.2647",
        "RA_OF_ASC_NODE": "76.2237",
        "ARG_OF_PERICENTER": "312.6777",
        "MEAN_ANOMALY": "47.2191",
        "EPHEMERIS_TYPE": "0",
        "CLASSIFICATION_TYPE": "U",
        "NORAD_CAT_ID": "43622",
        "ELEMENT_SET_NO": "999",
        "REV_AT_EPOCH": "4502",
        "BSTAR": "0.00000000000000",
        "MEAN_MOTION_DOT": "-0.00000014",
        "MEAN_MOTION_DDOT": "0.0000000000000",
        "SEMIMAJOR_AXIS": "27906.161",
        "PERIOD": "773.232",
        "APOAPSIS": "21552.123",
        "PERIAPSIS": "21503.929",
        "OBJECT_TYPE": "PAYLOAD",
        "RCS_SIZE": "LARGE",
        "COUNTRY_CODE": "PRC",
        "LAUNCH_DATE": "2018-09-19",
        "SITE": "XSC",
        "DECAY_DATE": null,
        "FILE": "4717971",
        "GP_ID": "286762072",
        "TLE_LINE0": "0 BEIDOU 3M13",
        "TLE_LINE1": "1 43622U 18072A   25123.30237356 -.00000014  00000-0  00000-0 0  9993",
        "TLE_LINE2": "2 43622  56.2647  76.2237 0008635 312.6777  47.2191  1.86231275 45021"
    }
]